[
    {
        "CCSDS_OMM_VERS": "3.0",
        "COMMENT": "GENERATED VIA SPACE-TRACK.ORG API",
        "CREATION_DATE": "2025-03-02T18:08:23",
        "ORIGINATOR": "18 SPCS",
        "OBJECT_NAME": "BEIDOU 15",
        "OBJECT_ID": "2012-050B",
        "CENTER_NAME": "EARTH",
        "REF_FRAME": "TEME",
        "TIME_SYSTEM": "UTC",
        "MEAN_ELEMENT_THEORY": "SGP4",
        "EPOCH": "2025-03-02T09:13:18.737760",
        "MEAN_MOTION": "1.86230896",
        "ECCENTRICITY": "0.00139430",
        "INCLINATION": "56.1288",
        "RA_OF_ASC_NODE": "78.5448",
        "ARG_OF_PERICENTER": "334.7423",
        "MEAN_ANOMALY": "25.2397",
        "EPHEMERIS_TYPE": "0",
        "CLASSIFICATION_TYPE": "U",
        "NORAD_CAT_ID": "38775",
        "ELEMENT_SET_NO": "999",
        "REV_AT_EPOCH": "8452",
        "BSTAR": "0.00000000000000",
        "MEAN_MOTION_DOT": "0.00000009",
        "MEAN_MOTION_DDOT": "0.0000000000000",
        "SEMIMAJOR_AXIS": "27906.199",
        "PERIOD": "773.234",
        "APOAPSIS": "21566.974",
        "PERIAPSIS": "21489.154",
        "OBJECT_TYPE": "PAYLOAD",
        "RCS_SIZE": "LARGE",
        "COUNTRY_CODE": "PRC",
        "LAUNCH_DATE": "2012-09-18",
        "SITE": "XSC",
        "DECAY_DATE": null,
        "FILE": "4657142",
        "GP_ID": "282084178",
        "TLE_LINE0": "0 BEIDOU 15",
        "TLE_LINE1": "1 38775U 12050B   25061.38424465  .00000009  00000-0  00000-0 0  9997",
        "TLE_LINE2": "2 38775  56.1288  78.5448 0013943 334.7423  25.2397  1.86230896 84524"
    }
]